KUIPER-00232            
1 67148U 25301R   26008.43525328  .00034479  00000+0  94063-3 0  9996
2 67148  51.8743 356.1692 0002349  85.0215 275.1040 15.37117971  4473
KUIPER-00241            
1 67149U 25301S   26008.44201207  .00032739  00000+0  90508-3 0  9992
2 67149  51.8742 356.2120 0002943 126.2048 233.9211 15.36731064  4805
KUIPER-00245            
1 67150U 25301T   26008.58335648  .00007201  00000+0  25322-3 0  9994
2 67150  51.8747 355.7193 0007493 163.5446 156.1087 15.30399099  3973
KUIPER-00246            
1 67151U 25301U   26008.57639859  .00029560  00000+0  82550-3 0  9993
2 67151  51.8734 355.6136 0004024 152.3380 207.7821 15.36465281  4519
KUIPER-00247            
1 67152U 25301V   26008.54113774  .00021269  00000+0  63633-3 0  9993
2 67152  51.8648 356.1101 0011147 194.4340 165.6328 15.34443960  4487
KUIPER-00248            
1 67153U 25301W   26008.59523981  .00020343  00000+0  59526-3 0  9992
2 67153  51.8688 355.7323 0008428 179.5124 180.5872 15.35198112  4662
KUIPER-00249            
1 67154U 25301X   26008.46234075  .00025276  00000+0  72819-3 0  9992
2 67154  51.8661 356.3401 0008447 177.9516 182.1506 15.35552358  4473
KUIPER-00250            
1 67155U 25301Y   26008.58472196  .00051264  00000+0  14363-2 0  9999
2 67155  51.8718 355.6680 0006644 165.7956 194.3218 15.36089785  4529
